[{"OBJECT_NAME":"LYNK TOWER 4","OBJECT_ID":"2023-001AB","EPOCH":"2026-03-09T16:15:30.644928","MEAN_MOTION":15.31819885,"ECCENTRICITY":0.00103213,"INCLINATION":97.3324,"RA_OF_ASC_NODE":128.594,"ARG_OF_PERICENTER":112.3386,"MEAN_ANOMALY":247.895,"EPHEMERIS_TYPE":0,"CLASSIFICATION_TYPE":"U","NORAD_CAT_ID":55034,"ELEMENT_SET_NO":999,"REV_AT_EPOCH":17658,"BSTAR":0.00030013829,"MEAN_MOTION_DOT":9.16e-5,"MEAN_MOTION_DDOT":0},{"OBJECT_NAME":"STARLINK-32290","OBJECT_ID":"2024-138E","EPOCH":"2026-03-09T21:21:44.499168","MEAN_MOTION":15.30174129,"ECCENTRICITY":4.837e-5,"INCLINATION":53.1597,"RA_OF_ASC_NODE":309.0077,"ARG_OF_PERICENTER":123.8936,"MEAN_ANOMALY":236.2111,"EPHEMERIS_TYPE":0,"CLASSIFICATION_TYPE":"U","NORAD_CAT_ID":60359,"ELEMENT_SET_NO":999,"REV_AT_EPOCH":7168,"BSTAR":0.00017799107,"MEAN_MOTION_DOT":4.912e-5,"MEAN_MOTION_DDOT":0}]
